[{"OBJECT_NAME":"STARLINK-30224","OBJECT_ID":"2023-102N","EPOCH":"2026-03-09T22:00:01.999584","MEAN_MOTION":15.1597228,"ECCENTRICITY":0.00017033,"INCLINATION":43.0005,"RA_OF_ASC_NODE":246.5259,"ARG_OF_PERICENTER":277.718,"MEAN_ANOMALY":82.2955,"EPHEMERIS_TYPE":0,"CLASSIFICATION_TYPE":"U","NORAD_CAT_ID":57416,"ELEMENT_SET_NO":999,"REV_AT_EPOCH":577,"BSTAR":0.0051457482,"MEAN_MOTION_DOT":0.00101766,"MEAN_MOTION_DDOT":0},{"OBJECT_NAME":"OBJECT C","OBJECT_ID":"2025-055C","EPOCH":"2026-03-09T23:32:37.740768","MEAN_MOTION":15.18796405,"ECCENTRICITY":0.00122942,"INCLINATION":97.6357,"RA_OF_ASC_NODE":209.5356,"ARG_OF_PERICENTER":140.8519,"MEAN_ANOMALY":219.3606,"EPHEMERIS_TYPE":0,"CLASSIFICATION_TYPE":"U","NORAD_CAT_ID":63293,"ELEMENT_SET_NO":999,"REV_AT_EPOCH":5407,"BSTAR":0.00071493632,"MEAN_MOTION_DOT":0.00014849,"MEAN_MOTION_DDOT":0}]
